{"type": "FeatureCollection", "features": [ {"type": "Feature", "properties": {"norad_id": 54234, "name": "NOAA 21 (JPSS-2)", "group": "weather", "lat": -8.674200319917318, "lon": 107.86777125680183, "alt_km": 832.2885721744569, "timestamp": "2025-12-18T23:35:48.689127+00:00", "meta": {"OBJECT_NAME": "NOAA 21 (JPSS-2)", "OBJECT_ID": "2022-150A", "EPOCH": "2025-12-18T14:15:09.662976", "MEAN_MOTION": 14.19525804, "ECCENTRICITY": 0.00019717, "INCLINATION": 98.7469, "RA_OF_ASC_NODE": 288.8292, "ARG_OF_PERICENTER": 26.507, "MEAN_ANOMALY": 333.6206, "EPHEMERIS_TYPE": 0, "CLASSIFICATION_TYPE": "U", "NORAD_CAT_ID": 54234, "ELEMENT_SET_NO": 999, "REV_AT_EPOCH": 16092, "BSTAR": 4.3732753e-05, "MEAN_MOTION_DOT": 4.8e-07, "MEAN_MOTION_DDOT": 0}, "tle": {"line1": "1 54234U 22150A   25352.59386184  .00000048  00000+0  43733-4 0  9994", "line2": "2 54234  98.7469 288.8292 0001971  26.5070 333.6206 14.19525804160920"}}, "geometry": {"type": "Point", "coordinates": [107.86777125680183, -8.674200319917318]}}, {"type": "Feature", "properties": {"norad_id": 54743, "name": "METEOSAT-12 (MTG-I1)", "group": "weather", "lat": 0.6076686273841002, "lon": 81.47851270949728, "alt_km": 35792.70169548116, "timestamp": "2025-12-18T23:35:48.689139+00:00", "meta": {"OBJECT_NAME": "METEOSAT-12 (MTG-I1)", "OBJECT_ID": "2022-170C", "EPOCH": "2025-12-18T08:09:24.946848", "MEAN_MOTION": 1.00270289, "ECCENTRICITY": 0.0001489, "INCLINATION": 0.6927, "RA_OF_ASC_NODE": 24.5416, "ARG_OF_PERICENTER": 239.3697, "MEAN_ANOMALY": 305.3496, "EPHEMERIS_TYPE": 0, "CLASSIFICATION_TYPE": "U", "NORAD_CAT_ID": 54743, "ELEMENT_SET_NO": 999, "REV_AT_EPOCH": 1116, "BSTAR": 0, "MEAN_MOTION_DOT": 1.7e-07, "MEAN_MOTION_DDOT": 0}, "tle": {"line1": "1 54743U 22170C   25352.33987207  .00000017  00000+0  00000+0 0  9997", "line2": "2 54743   0.6927  24.5416 0001489 239.3697 305.3496  1.00270289 11160"}}, "geometry": {"type": "Point", "coordinates": [81.47851270949728, 0.6076686273841002]}}, {"type": "Feature", "properties": {"norad_id": 55973, "name": "TIANMU-1 03", "group": "weather", "lat": -39.1625933698877, "lon": 161.97797375898142, "alt_km": 449.05685724790237, "timestamp": "2025-12-18T23:35:48.689151+00:00", "meta": {"OBJECT_NAME": "TIANMU-1 03", "OBJECT_ID": "2023-039A", "EPOCH": "2025-12-18T14:25:05.162880", "MEAN_MOTION": 15.4109044, "ECCENTRICITY": 0.00041565, "INCLINATION": 97.5101, "RA_OF_ASC_NODE": 155.4164, "ARG_OF_PERICENTER": 44.6557, "MEAN_ANOMALY": 315.5023, "EPHEMERIS_TYPE": 0, "CLASSIFICATION_TYPE": "U", "NORAD_CAT_ID": 55973, "ELEMENT_SET_NO": 999, "REV_AT_EPOCH": 15296, "BSTAR": 0.00031253514, "MEAN_MOTION_DOT": 0.00012847, "MEAN_MOTION_DDOT": 0}, "tle": {"line1": "1 55973U 23039A   25352.60075420  .00012847  00000+0  31254-3 0  9996", "line2": "2 55973  97.5101 155.4164 0004156  44.6557 315.5023 15.41090440152967"}}, "geometry": {"type": "Point", "coordinates": [161.97797375898142, -39.1625933698877]}}, {"type": "Feature", "properties": {"norad_id": 55974, "name": "TIANMU-1 04", "group": "weather", "lat": 79.16853841571032, "lon": 111.45646592435796, "alt_km": 432.2090435986047, "timestamp": "2025-12-18T23:35:48.689162+00:00", "meta": {"OBJECT_NAME": "TIANMU-1 04", "OBJECT_ID": "2023-039B", "EPOCH": "2025-12-18T13:53:38.470272", "MEAN_MOTION": 15.41430523, "ECCENTRICITY": 0.00047787, "INCLINATION": 97.5032, "RA_OF_ASC_NODE": 154.5826, "ARG_OF_PERICENTER": 38.6206, "MEAN_ANOMALY": 321.5381, "EPHEMERIS_TYPE": 0, "CLASSIFICATION_TYPE": "U", "NORAD_CAT_ID": 55974, "ELEMENT_SET_NO": 999, "REV_AT_EPOCH": 15296, "BSTAR": 0.00031606106, "MEAN_MOTION_DOT": 0.00013142, "MEAN_MOTION_DDOT": 0}, "tle": {"line1": "1 55974U 23039B   25352.57891748  .00013142  00000+0  31606-3 0  9992", "line2": "2 55974  97.5032 154.5826 0004778  38.6206 321.5381 15.41430523152964"}}, "geometry": {"type": "Point", "coordinates": [111.45646592435796, 79.16853841571032]}}, {"type": "Feature", "properties": {"norad_id": 55975, "name": "TIANMU-1 05", "group": "weather", "lat": 72.76750834221158, "lon": 0.6540769786713665, "alt_km": 433.975203929539, "timestamp": "2025-12-18T23:35:48.689176+00:00", "meta": {"OBJECT_NAME": "TIANMU-1 05", "OBJECT_ID": "2023-039C", "EPOCH": "2025-12-18T15:20:56.370048", "MEAN_MOTION": 15.41048695, "ECCENTRICITY": 0.00042013, "INCLINATION": 97.5079, "RA_OF_ASC_NODE": 155.1375, "ARG_OF_PERICENTER": 62.1661, "MEAN_ANOMALY": 298.001, "EPHEMERIS_TYPE": 0, "CLASSIFICATION_TYPE": "U", "NORAD_CAT_ID": 55975, "ELEMENT_SET_NO": 999, "REV_AT_EPOCH": 15295, "BSTAR": 0.00031210531, "MEAN_MOTION_DOT": 0.00012812, "MEAN_MOTION_DDOT": 0}, "tle": {"line1": "1 55975U 23039C   25352.63954132  .00012812  00000+0  31211-3 0  9992", "line2": "2 55975  97.5079 155.1375 0004201  62.1661 298.0010 15.41048695152951"}}, "geometry": {"type": "Point", "coordinates": [0.6540769786713665, 72.76750834221158]}}, {"type": "Feature", "properties": {"norad_id": 55976, "name": "TIANMU-1 06", "group": "weather", "lat": 69.8353265993346, "lon": 134.910176958162, "alt_km": 432.0214770721377, "timestamp": "2025-12-18T23:35:48.689186+00:00", "meta": {"OBJECT_NAME": "TIANMU-1 06", "OBJECT_ID": "2023-039D", "EPOCH": "2025-12-18T15:29:58.084224", "MEAN_MOTION": 15.41483115, "ECCENTRICITY": 0.00044759, "INCLINATION": 97.509, "RA_OF_ASC_NODE": 155.6139, "ARG_OF_PERICENTER": 56.6649, "MEAN_ANOMALY": 303.5025, "EPHEMERIS_TYPE": 0, "CLASSIFICATION_TYPE": "U", "NORAD_CAT_ID": 55976, "ELEMENT_SET_NO": 999, "REV_AT_EPOCH": 15297, "BSTAR": 0.00030431492, "MEAN_MOTION_DOT": 0.00012671, "MEAN_MOTION_DDOT": 0}, "tle": {"line1": "1 55976U 23039D   25352.64581116  .00012671  00000+0  30431-3 0  9998", "line2": "2 55976  97.5090 155.6139 0004475  56.6649 303.5025 15.41483115152975"}}, "geometry": {"type": "Point", "coordinates": [134.910176958162, 69.8353265993346]}}, {"type": "Feature", "properties": {"norad_id": 56232, "name": "FENGYUN 3G", "group": "weather", "lat": 42.12316796372604, "lon": -34.19931801781461, "alt_km": 395.75313600415393, "timestamp": "2025-12-18T23:35:48.689197+00:00", "meta": {"OBJECT_NAME": "FENGYUN 3G", "OBJECT_ID": "2023-055A", "EPOCH": "2025-12-18T13:49:41.889792", "MEAN_MOTION": 15.53985622, "ECCENTRICITY": 0.00093718, "INCLINATION": 49.9921, "RA_OF_ASC_NODE": 197.3287, "ARG_OF_PERICENTER": 175.0064, "MEAN_ANOMALY": 185.0999, "EPHEMERIS_TYPE": 0, "CLASSIFICATION_TYPE": "U", "NORAD_CAT_ID": 56232, "ELEMENT_SET_NO": 999, "REV_AT_EPOCH": 15193, "BSTAR": 0.00040207595, "MEAN_MOTION_DOT": 0.00026172, "MEAN_MOTION_DDOT": 0}, "tle": {"line1": "1 56232U 23055A   25352.57617928  .00026172  00000+0  40208-3 0  9999", "line2": "2 56232  49.9921 197.3287 0009371 175.0064 185.0999 15.53985622151930"}}, "geometry": {"type": "Point", "coordinates": [-34.19931801781461, 42.12316796372604]}}, {"type": "Feature", "properties": {"norad_id": 57166, "name": "METEOR-M2 3", "group": "weather", "lat": -16.11391943228461, "lon": -136.10344549590505, "alt_km": 818.8420693123571, "timestamp": "2025-12-18T23:35:48.689208+00:00", "meta": {"OBJECT_NAME": "METEOR-M2 3", "OBJECT_ID": "2023-091A", "EPOCH": "2025-12-18T14:14:48.215904", "MEAN_MOTION": 14.24026775, "ECCENTRICITY": 0.00035702, "INCLINATION": 98.6372, "RA_OF_ASC_NODE": 46.0306, "ARG_OF_PERICENTER": 351.5641, "MEAN_ANOMALY": 8.5478, "EPHEMERIS_TYPE": 0, "CLASSIFICATION_TYPE": "U", "NORAD_CAT_ID": 57166, "ELEMENT_SET_NO": 999, "REV_AT_EPOCH": 12881, "BSTAR": 2.6622686e-05, "MEAN_MOTION_DOT": 1.8e-07, "MEAN_MOTION_DDOT": 0}, "tle": {"line1": "1 57166U 23091A   25352.59361361  .00000018  00000+0  26623-4 0  9992", "line2": "2 57166  98.6372  46.0306 0003570 351.5641   8.5478 14.24026775128811"}}, "geometry": {"type": "Point", "coordinates": [-136.10344549590505, -16.11391943228461]}}, {"type": "Feature", "properties": {"norad_id": 57399, "name": "TIANMU-1 07", "group": "weather", "lat": -18.859003506339917, "lon": -139.809468865673, "alt_km": 489.03874465595163, "timestamp": "2025-12-18T23:35:48.689218+00:00", "meta": {"OBJECT_NAME": "TIANMU-1 07", "OBJECT_ID": "2023-101A", "EPOCH": "2025-12-18T14:52:18.875424", "MEAN_MOTION": 15.2815395, "ECCENTRICITY": 0.00053771, "INCLINATION": 97.2873, "RA_OF_ASC_NODE": 42.3402, "ARG_OF_PERICENTER": 66.817, "MEAN_ANOMALY": 293.3636, "EPHEMERIS_TYPE": 0, "CLASSIFICATION_TYPE": "U", "NORAD_CAT_ID": 57399, "ELEMENT_SET_NO": 999, "REV_AT_EPOCH": 13405, "BSTAR": 0.00022767598, "MEAN_MOTION_DOT": 6.178e-05, "MEAN_MOTION_DDOT": 0}, "tle": {"line1": "1 57399U 23101A   25352.61966291  .00006178  00000+0  22768-3 0  9996", "line2": "2 57399  97.2873  42.3402 0005377  66.8170 293.3636 15.28153950134050"}}, "geometry": {"type": "Point", "coordinates": [-139.809468865673, -18.859003506339917]}}, {"type": "Feature", "properties": {"norad_id": 57400, "name": "TIANMU-1 08", "group": "weather", "lat": 19.865423866078835, "lon": 39.84308386380817, "alt_km": 478.06826322254983, "timestamp": "2025-12-18T23:35:48.689228+00:00", "meta": {"OBJECT_NAME": "TIANMU-1 08", "OBJECT_ID": "2023-101B", "EPOCH": "2025-12-18T15:39:06.345792", "MEAN_MOTION": 15.28136496, "ECCENTRICITY": 0.0007325, "INCLINATION": 97.2861, "RA_OF_ASC_NODE": 42.169, "ARG_OF_PERICENTER": 67.2718, "MEAN_ANOMALY": 292.9295, "EPHEMERIS_TYPE": 0, "CLASSIFICATION_TYPE": "U", "NORAD_CAT_ID": 57400, "ELEMENT_SET_NO": 999, "REV_AT_EPOCH": 13405, "BSTAR": 0.00020596311, "MEAN_MOTION_DOT": 5.58e-05, "MEAN_MOTION_DDOT": 0}, "tle": {"line1": "1 57400U 23101B   25352.65215678  .00005580  00000+0  20596-3 0  9992", "line2": "2 57400  97.2861  42.1690 0007325  67.2718 292.9295 15.28136496134057"}}, "geometry": {"type": "Point", "coordinates": [39.84308386380817, 19.865423866078835]}}]}